GLOBALSTAR M035         
1 25851U 99037A   25292.93958383  .00000005  00000+0  25975-2 0  9991
2 25851  51.9911 136.7545 0013404 178.7709 321.6096 11.04539938110047
GLOBALSTAR M032         
1 25852U 99037B   25292.93834306 -.00000031  00000+0  11559-2 0  9993
2 25852  51.9965 313.3530 0012403  17.1747 342.9470 11.19063388148758
GLOBALSTAR M051         
1 25853U 99037C   25292.93520648 -.00000058  00000+0  34099-3 0  9999
2 25853  51.9765  99.9488 0001500  91.0631 269.0351 11.42205468146641
GLOBALSTAR M030         
1 25854U 99037D   25292.60679955 -.00000100  00000+0 -52665-3 0  9998
2 25854  51.9871 258.9376 0002961 276.3368  83.7112 11.55114341164425
GLOBALSTAR M048         
1 25872U 99041A   25292.70351229 -.00000076  00000+0 -17124-3 0  9998
2 25872  51.9396  40.3555 0013480  43.5455 105.6745 11.33859423139104
GLOBALSTAR M026         
1 25873U 99041B   25292.96706409 -.00000084  00000+0 -74934-3 0  9992
2 25873  52.0001 253.3365 0001806 106.6521 353.1839 11.06851413162302
GLOBALSTAR M043         
1 25874U 99041C   25292.94855497  .00000011  00000+0  23652-2 0  9991
2 25874  51.9369 152.3929 0013466 159.5334 306.6287 11.25695999136921
GLOBALSTAR M028         
1 25875U 99041D   25292.11505278 -.00000065  00000+0  22825-3 0  9992
2 25875  51.9613 183.5333 0063397 341.3713  18.4829 12.50589799205688
